H-2A R/B                
1 27601U 02056E   24152.95515330  .00000432  00000+0  16905-3 0  9996
2 27601  98.2290 130.8301 0069982 290.3262 133.0836 14.32818992121467
CZ-4B R/B               
1 28059U 03049C   24152.87443203  .00000704  00000+0  17689-3 0  9999
2 28059  98.6097 114.7855 0050085  46.9342 313.6030 14.53770410 92573
CZ-2C R/B               
1 28222U 04012C   24153.02985320  .00012664  00000+0  48960-3 0  9995
2 28222  97.8043 165.2988 0036508 106.3504 254.1752 15.25745208104650
SL-16 R/B               
1 28353U 04021B   24153.39298565  .00000218  00000+0  13848-3 0  9997
2 28353  70.9980 148.6245 0006870 290.2809  69.7574 14.14411360 31442
CZ-4B R/B               
1 28415U 04035C   24152.83032892  .00007837  00000+0  40669-3 0  9993
2 28415  97.4247 186.8545 0044539  81.0943 279.5328 15.15526066 81486
CZ-2C R/B               
1 28480U 04046B   24152.88458632  .00000220  00000+0  98332-4 0  9996
2 28480  98.1618  98.1997 0139330 267.5698  90.9527 14.26374926 16274
ARIANE 5 R/B            
1 28499U 04049H   24152.92960461  .00001062  00000+0  13124-3 0  9992
2 28499  98.1822 290.5176 0087024 285.8240  73.3392 14.82530065 49862
CZ-2D R/B               
1 28738U 05024B   24153.00324290  .00011789  00000+0  46321-3 0  9998
2 28738  97.3634 151.8032 0008703 185.8923 174.2215 15.25806290 40202
SUZAKU (ASTRO-EII)      
1 28773U 05025A   24153.50459765  .00029899  00000+0  60814-3 0  9993
2 28773  31.3875 245.8023 0003218 125.3147 234.7809 15.45064959 44589
ALOS (DAICHI)           
1 28931U 06002A   24153.45649444  .00002295  00000+0  42985-3 0  9994
2 28931  98.0355 106.8517 0001671 123.5387 236.5976 14.65749200979042
H-2A R/B                
1 28932U 06002B   24152.84308850  .00005775  00000+0  43461-3 0  9996
2 28932  98.2068 243.6343 0069976 257.8041 101.5337 15.01013567996887
RESURS-DK 1             
1 29228U 06021A   24153.29201399  .00003364  00000+0  22978-3 0  9998
2 29228  69.9344 102.5160 0003216 351.1042   9.0064 15.07181142989952
GENESIS 1               
1 29252U 06029A   24153.18225367  .00016467  00000+0  43785-3 0  9999
2 29252  64.5153 220.0987 0022982 326.6284  33.3399 15.38133010988198
CZ-4B R/B               
1 29507U 06046C   24153.09302009  .00004741  00000+0  31093-3 0  9991
2 29507  97.6442 189.2404 0039327 334.3051  25.6222 15.07530715962345
CZ-2C R/B               
1 31114U 07010B   24152.90647074  .00000162  00000+0  93661-4 0  9996
2 31114  98.3304 289.9251 0059687  16.9609 343.3546 14.19788180887920
COSMO-SKYMED 1          
1 31598U 07023A   24153.47350433  .00000776  00000+0  10400-3 0  9999
2 31598  97.8867 336.8498 0001520  88.6390 271.4998 14.82155231918860
GENESIS 2               
1 31789U 07028A   24153.52998280  .00016836  00000+0  47146-3 0  9991
2 31789  64.4900 264.4746 0023561 226.0128 133.9062 15.36501137935074
COSMOS 2428             
1 31792U 07029A   24152.91363943 -.00000163  00000+0 -62201-4 0  9998
2 31792  70.9416 120.9222 0007504  65.6855 294.5049 14.12718324872744
SL-16 R/B               
1 31793U 07029B   24152.96910806  .00000018  00000+0  34310-4 0  9997
2 31793  70.9748  91.6535 0002593 262.9552 164.0571 14.14626814873907
KORONAS-FOTON           
1 33504U 09003A   24153.26561767  .00007461  00000+0  28759-3 0  9993
2 33504  82.4381 218.9056 0013988 298.8624  61.1210 15.26073575846721
CZ-2C R/B               
1 37731U 11030B   24152.93625782  .00001737  00000+0  24396-3 0  9996
2 37731  97.7628 117.4128 0054656 293.7113 132.8781 14.77655812694452
H-2A R/B                
1 38341U 12025E   24153.54734578  .00002606  00000+0  28094-3 0  9996
2 38341  98.4249  64.1017 0049160 258.4993 101.0699 14.88540002651949
CUSAT 2 & FALCON 9 R/B  
1 39271U 13055G   24153.20471197  .00091117  92638-6  10526-2 0  9991
2 39271  80.9320  98.9293 0307242   1.3503 358.8481 15.21260746562943
SHIJIAN-16 (SJ-16)      
1 39358U 13057A   24153.52251737  .00001338  00000+0  14569-3 0  9993
2 39358  74.9724 325.4469 0018225 236.0037 123.9418 14.88762085575289
CZ-2C R/B               
1 39364U 13059B   24152.68429607  .00277295  30878-4  81214-3 0  9990
2 39364  97.0356 202.4976 0014278 219.9037 140.1190 15.92571617590644
SL-4 R/B                
1 39679U 14021B   24153.18514860  .00006515  00000+0  25034-3 0  9993
2 39679  51.6100 204.7208 0137436 301.3829  57.3762 15.19361102557659
ALOS-2                  
1 39766U 14029A   24153.55462694  .00002550  00000+0  34815-3 0  9998
2 39766  97.9206 250.4204 0001645  97.6412 262.4986 14.79472565541364
SL-27 R/B               
1 40354U 14084B   24152.68475962  .00049720  00000+0  33899-3 0  9990
2 40354  74.7235 245.7967 0017333  47.5354 312.7338 15.74409691531542
YAOGAN-29               
1 41038U 15069A   24153.51056543  .00000682  00000+0  93337-4 0  9995
2 41038  98.0548 167.8305 0000733 340.1285  19.9899 14.81745388460147
ASTRO-H (HITOMI)        
1 41337U 16012A   24153.19989850  .00002759  00000+0  19006-3 0  9993
2 41337  31.0008 190.3494 0010789 336.2940  23.7198 15.03706828454614
HXMT (HUIYAN)           
1 42758U 17034A   24153.53409095  .00007071  00000+0  39167-3 0  9994
2 42758  43.0157   1.4395 0013250  54.8131 305.3955 15.14207703384480
CZ-2C R/B               
1 43521U 18054D   24153.47072438  .00010853  00000+0  36851-3 0  9995
2 43521  35.1463 215.8774 0056876 347.7551  12.1785 15.28140368328462
SAOCOM 1A               
1 43641U 18076A   24153.48206507  .00000655  00000+0  88806-4 0  9996
2 43641  97.8886 339.9358 0001544  87.8695 272.2695 14.82152037305647
H-2A R/B                
1 43682U 18084L   24153.24059454  .00009450  00000+0  50287-3 0  9994
2 43682  98.8513 238.0947 0045221  64.0099 296.5776 15.14634460307088
SAOCOM 1B               
1 46265U 20059A   24153.51328208  .00000680  00000+0  91911-4 0  9991
2 46265  97.8886 339.0591 0001386  91.1735 268.9637 14.82155419203045
CSS (TIANHE)            
1 48274U 21035A   24153.52017339  .00108127  00000+0  12245-2 0  9995
2 48274  41.4685 178.5784 0000719 129.9857   0.6302 15.61286171176646
COSMOS 2550             
1 48865U 21056A   24153.44072128 -.00000067  00000+0  37795-5 0  9997
2 48865  67.1391 195.9415 0008371 269.7010  90.3185 15.33830279164365
2022-019U               
1 51842U 22019U   24153.53749743  .00154686  00000+0  10372-2 0  9995
2 51842  97.5097 259.1589 0023120 159.4468 200.7732 15.74416756126650
CZ-2C R/B               
1 52794U 22058K   24152.87793045  .00012642  00000+0  49833-3 0  9995
2 52794  50.1762 320.8626 0080147  62.8275 298.0825 15.22960422110635
XRISM                   
1 57800U 23137A   24152.93702790  .00004771  00000+0  35816-3 0  9991
2 57800  31.0022 116.0406 0009339  46.2614 313.8794 15.01024461 40165
